SHENZHOU-21 (SZ-21)     
1 66263U 25246A   25311.04013910  .00032955  00000+0  38997-3 0  9994
2 66263  41.4666 233.4859 0005699 336.2635  23.7940 15.60556280258135
CZ-2F R/B               
1 66264U 25246B   25312.03386678  .01579710  76534-5  58518-3 0  9997
2 66264  41.4607 224.2188 0072656 183.7237 176.3089 16.16768309  1194
